[{"OBJECT_NAME":"STARLINK-36751","OBJECT_ID":"2026-026J","EPOCH":"2026-03-03T18:00:02.000160","MEAN_MOTION":15.73286829,"ECCENTRICITY":0.00018055,"INCLINATION":97.2838,"RA_OF_ASC_NODE":117.1483,"ARG_OF_PERICENTER":72.5204,"MEAN_ANOMALY":37.9443,"EPHEMERIS_TYPE":0,"CLASSIFICATION_TYPE":"U","NORAD_CAT_ID":67729,"ELEMENT_SET_NO":999,"REV_AT_EPOCH":435,"BSTAR":-0.016580093,"MEAN_MOTION_DOT":-0.02013692,"MEAN_MOTION_DDOT":0},{"OBJECT_NAME":"STARLINK-36747","OBJECT_ID":"2026-026K","EPOCH":"2026-03-03T18:00:02.000160","MEAN_MOTION":15.7318701,"ECCENTRICITY":0.00017633,"INCLINATION":97.2838,"RA_OF_ASC_NODE":117.1446,"ARG_OF_PERICENTER":73.5496,"MEAN_ANOMALY":27.71,"EPHEMERIS_TYPE":0,"CLASSIFICATION_TYPE":"U","NORAD_CAT_ID":67730,"ELEMENT_SET_NO":999,"REV_AT_EPOCH":435,"BSTAR":-0.016653994,"MEAN_MOTION_DOT":-0.02013932,"MEAN_MOTION_DDOT":0},{"OBJECT_NAME":"STARLINK-36315","OBJECT_ID":"2026-026L","EPOCH":"2026-03-03T18:00:02.000160","MEAN_MOTION":15.73463523,"ECCENTRICITY":0.00017498,"INCLINATION":97.2838,"RA_OF_ASC_NODE":117.1515,"ARG_OF_PERICENTER":80.4564,"MEAN_ANOMALY":36.6212,"EPHEMERIS_TYPE":0,"CLASSIFICATION_TYPE":"U","NORAD_CAT_ID":67731,"ELEMENT_SET_NO":999,"REV_AT_EPOCH":435,"BSTAR":-0.016451705,"MEAN_MOTION_DOT":-0.01971927,"MEAN_MOTION_DDOT":0},{"OBJECT_NAME":"STARLINK-36260","OBJECT_ID":"2026-026M","EPOCH":"2026-03-03T18:00:02.000160","MEAN_MOTION":15.73843338,"ECCENTRICITY":0.0001816,"INCLINATION":97.2838,"RA_OF_ASC_NODE":117.155,"ARG_OF_PERICENTER":75.6623,"MEAN_ANOMALY":50.4945,"EPHEMERIS_TYPE":0,"CLASSIFICATION_TYPE":"U","NORAD_CAT_ID":67732,"ELEMENT_SET_NO":999,"REV_AT_EPOCH":435,"BSTAR":-0.016184367,"MEAN_MOTION_DOT":-0.01972075,"MEAN_MOTION_DDOT":0},{"OBJECT_NAME":"STARLINK-36746","OBJECT_ID":"2026-026N","EPOCH":"2026-03-03T18:00:02.000160","MEAN_MOTION":15.53654803,"ECCENTRICITY":0.00019367,"INCLINATION":97.2839,"RA_OF_ASC_NODE":117.035,"ARG_OF_PERICENTER":80.7404,"MEAN_ANOMALY":115.6851,"EPHEMERIS_TYPE":0,"CLASSIFICATION_TYPE":"U","NORAD_CAT_ID":67733,"ELEMENT_SET_NO":999,"REV_AT_EPOCH":435,"BSTAR":-0.034209657,"MEAN_MOTION_DOT":-0.01922528,"MEAN_MOTION_DDOT":0},{"OBJECT_NAME":"STARLINK-36749","OBJECT_ID":"2026-026P","EPOCH":"2026-03-03T18:00:02.000160","MEAN_MOTION":15.67569336,"ECCENTRICITY":0.00017447,"INCLINATION":97.284,"RA_OF_ASC_NODE":117.1375,"ARG_OF_PERICENTER":73.7657,"MEAN_ANOMALY":9.6437,"EPHEMERIS_TYPE":0,"CLASSIFICATION_TYPE":"U","NORAD_CAT_ID":67734,"ELEMENT_SET_NO":999,"REV_AT_EPOCH":435,"BSTAR":-0.020975149,"MEAN_MOTION_DOT":-0.02005569,"MEAN_MOTION_DDOT":0},{"OBJECT_NAME":"STARLINK-36691","OBJECT_ID":"2026-026Q","EPOCH":"2026-03-03T18:00:02.000160","MEAN_MOTION":15.74672685,"ECCENTRICITY":0.00018736,"INCLINATION":97.2841,"RA_OF_ASC_NODE":117.1679,"ARG_OF_PERICENTER":82.5014,"MEAN_ANOMALY":79.5148,"EPHEMERIS_TYPE":0,"CLASSIFICATION_TYPE":"U","NORAD_CAT_ID":67735,"ELEMENT_SET_NO":999,"REV_AT_EPOCH":449,"BSTAR":-0.015597602,"MEAN_MOTION_DOT":-0.01970692,"MEAN_MOTION_DDOT":0},{"OBJECT_NAME":"STARLINK-36317","OBJECT_ID":"2026-026R","EPOCH":"2026-03-03T18:00:02.000160","MEAN_MOTION":15.74420387,"ECCENTRICITY":0.00018637,"INCLINATION":97.2841,"RA_OF_ASC_NODE":117.1629,"ARG_OF_PERICENTER":78.8944,"MEAN_ANOMALY":72.2684,"EPHEMERIS_TYPE":0,"CLASSIFICATION_TYPE":"U","NORAD_CAT_ID":67736,"ELEMENT_SET_NO":999,"REV_AT_EPOCH":435,"BSTAR":-0.015786225,"MEAN_MOTION_DOT":-0.01972406,"MEAN_MOTION_DDOT":0},{"OBJECT_NAME":"STARLINK-36330","OBJECT_ID":"2026-026S","EPOCH":"2026-03-03T18:00:02.000160","MEAN_MOTION":15.74773993,"ECCENTRICITY":0.00018954,"INCLINATION":97.2842,"RA_OF_ASC_NODE":117.1699,"ARG_OF_PERICENTER":85.6924,"MEAN_ANOMALY":83.0737,"EPHEMERIS_TYPE":0,"CLASSIFICATION_TYPE":"U","NORAD_CAT_ID":67737,"ELEMENT_SET_NO":999,"REV_AT_EPOCH":435,"BSTAR":-0.015558773,"MEAN_MOTION_DOT":-0.01973998,"MEAN_MOTION_DDOT":0},{"OBJECT_NAME":"STARLINK-36327","OBJECT_ID":"2026-026T","EPOCH":"2026-03-03T18:00:02.000160","MEAN_MOTION":15.75066277,"ECCENTRICITY":0.00018091,"INCLINATION":97.2842,"RA_OF_ASC_NODE":117.174,"ARG_OF_PERICENTER":86.7801,"MEAN_ANOMALY":91.4536,"EPHEMERIS_TYPE":0,"CLASSIFICATION_TYPE":"U","NORAD_CAT_ID":67738,"ELEMENT_SET_NO":999,"REV_AT_EPOCH":435,"BSTAR":-0.015366289,"MEAN_MOTION_DOT":-0.01974495,"MEAN_MOTION_DDOT":0},{"OBJECT_NAME":"STARLINK-36329","OBJECT_ID":"2026-026U","EPOCH":"2026-03-03T18:00:02.000160","MEAN_MOTION":15.76093819,"ECCENTRICITY":0.00018109,"INCLINATION":97.2855,"RA_OF_ASC_NODE":117.1916,"ARG_OF_PERICENTER":90.2765,"MEAN_ANOMALY":140.7677,"EPHEMERIS_TYPE":0,"CLASSIFICATION_TYPE":"U","NORAD_CAT_ID":67739,"ELEMENT_SET_NO":999,"REV_AT_EPOCH":435,"BSTAR":-0.014605478,"MEAN_MOTION_DOT":-0.01965118,"MEAN_MOTION_DDOT":0},{"OBJECT_NAME":"STARLINK-36737","OBJECT_ID":"2026-026V","EPOCH":"2026-03-03T18:00:02.000160","MEAN_MOTION":15.75218267,"ECCENTRICITY":0.0001856,"INCLINATION":97.2843,"RA_OF_ASC_NODE":117.1766,"ARG_OF_PERICENTER":86.5463,"MEAN_ANOMALY":101.198,"EPHEMERIS_TYPE":0,"CLASSIFICATION_TYPE":"U","NORAD_CAT_ID":67740,"ELEMENT_SET_NO":999,"REV_AT_EPOCH":435,"BSTAR":-0.015239469,"MEAN_MOTION_DOT":-0.0197179,"MEAN_MOTION_DDOT":0},{"OBJECT_NAME":"STARLINK-36740","OBJECT_ID":"2026-026W","EPOCH":"2026-03-03T18:00:02.000160","MEAN_MOTION":15.70952134,"ECCENTRICITY":0.00019127,"INCLINATION":97.2846,"RA_OF_ASC_NODE":117.1788,"ARG_OF_PERICENTER":86.6939,"MEAN_ANOMALY":101.6771,"EPHEMERIS_TYPE":0,"CLASSIFICATION_TYPE":"U","NORAD_CAT_ID":67741,"ELEMENT_SET_NO":999,"REV_AT_EPOCH":435,"BSTAR":-0.01822073,"MEAN_MOTION_DOT":-0.02004932,"MEAN_MOTION_DDOT":0},{"OBJECT_NAME":"STARLINK-36693","OBJECT_ID":"2026-026X","EPOCH":"2026-03-03T18:00:02.000160","MEAN_MOTION":15.71622766,"ECCENTRICITY":0.00018881,"INCLINATION":97.2843,"RA_OF_ASC_NODE":117.1725,"ARG_OF_PERICENTER":85.1471,"MEAN_ANOMALY":86.3678,"EPHEMERIS_TYPE":0,"CLASSIFICATION_TYPE":"U","NORAD_CAT_ID":67742,"ELEMENT_SET_NO":999,"REV_AT_EPOCH":449,"BSTAR":-0.017751906,"MEAN_MOTION_DOT":-0.02008907,"MEAN_MOTION_DDOT":0},{"OBJECT_NAME":"STARLINK-36717","OBJECT_ID":"2026-026Y","EPOCH":"2026-03-03T18:00:02.000160","MEAN_MOTION":15.7372896,"ECCENTRICITY":0.0001812,"INCLINATION":97.2846,"RA_OF_ASC_NODE":117.183,"ARG_OF_PERICENTER":88.651,"MEAN_ANOMALY":113.3026,"EPHEMERIS_TYPE":0,"CLASSIFICATION_TYPE":"U","NORAD_CAT_ID":67743,"ELEMENT_SET_NO":999,"REV_AT_EPOCH":449,"BSTAR":-0.01622107,"MEAN_MOTION_DOT":-0.01967515,"MEAN_MOTION_DDOT":0},{"OBJECT_NAME":"STARLINK-36692","OBJECT_ID":"2026-026Z","EPOCH":"2026-03-03T18:00:02.000160","MEAN_MOTION":15.72487316,"ECCENTRICITY":0.0001873,"INCLINATION":97.2844,"RA_OF_ASC_NODE":117.1774,"ARG_OF_PERICENTER":85.4403,"MEAN_ANOMALY":100.9593,"EPHEMERIS_TYPE":0,"CLASSIFICATION_TYPE":"U","NORAD_CAT_ID":67744,"ELEMENT_SET_NO":999,"REV_AT_EPOCH":435,"BSTAR":-0.017110371,"MEAN_MOTION_DOT":-0.02008821,"MEAN_MOTION_DDOT":0}]
