STARLINK-36751          
1 67729U 26026J   26062.75002315 -.02013692  00000+0 -16580-1 0  9991
2 67729  97.2838 117.1483 0001805  72.5204  37.9443 15.73286829  4352
STARLINK-36747          
1 67730U 26026K   26062.75002315 -.02013932  00000+0 -16654-1 0  9992
2 67730  97.2838 117.1446 0001763  73.5496  27.7100 15.73187010  4359
STARLINK-36315          
1 67731U 26026L   26062.75002315 -.01971927  00000+0 -16452-1 0  9995
2 67731  97.2838 117.1515 0001749  80.4564  36.6212 15.73463523  4353
STARLINK-36260          
1 67732U 26026M   26062.75002315 -.01972075  00000+0 -16184-1 0  9993
2 67732  97.2838 117.1550 0001816  75.6623  50.4945 15.73843338  4353
STARLINK-36746          
1 67733U 26026N   26062.75002315 -.01922528  00000+0 -34210-1 0  9992
2 67733  97.2839 117.0350 0001936  80.7404 115.6851 15.53654803  4354
STARLINK-36749          
1 67734U 26026P   26062.75002315 -.02005569  00000+0 -20975-1 0  9994
2 67734  97.2840 117.1375 0001744  73.7657   9.6437 15.67569336  4357
STARLINK-36691          
1 67735U 26026Q   26062.75002315 -.01970692  00000+0 -15598-1 0  9997
2 67735  97.2841 117.1679 0001873  82.5014  79.5148 15.74672685  4494
STARLINK-36317          
1 67736U 26026R   26062.75002315 -.01972406  00000+0 -15786-1 0  9992
2 67736  97.2841 117.1629 0001863  78.8944  72.2684 15.74420387  4359
STARLINK-36330          
1 67737U 26026S   26062.75002315 -.01973998  00000+0 -15559-1 0  9998
2 67737  97.2842 117.1699 0001895  85.6924  83.0737 15.74773993  4350
STARLINK-36327          
1 67738U 26026T   26062.75002315 -.01974495  00000+0 -15366-1 0  9998
2 67738  97.2842 117.1740 0001809  86.7801  91.4536 15.75066277  4350
STARLINK-36329          
1 67739U 26026U   26062.75002315 -.01965118  00000+0 -14605-1 0  9996
2 67739  97.2855 117.1916 0001810  90.2765 140.7677 15.76093819  4358
STARLINK-36737          
1 67740U 26026V   26062.75002315 -.01971790  00000+0 -15239-1 0  9995
2 67740  97.2843 117.1766 0001856  86.5463 101.1980 15.75218267  4356
STARLINK-36740          
1 67741U 26026W   26062.75002315 -.02004932  00000+0 -18221-1 0  9996
2 67741  97.2846 117.1788 0001912  86.6939 101.6771 15.70952134  4352
STARLINK-36693          
1 67742U 26026X   26062.75002315 -.02008907  00000+0 -17752-1 0  9991
2 67742  97.2843 117.1725 0001888  85.1471  86.3678 15.71622766  4494
STARLINK-36717          
1 67743U 26026Y   26062.75002315 -.01967515  00000+0 -16221-1 0  9990
2 67743  97.2846 117.1830 0001812  88.6510 113.3026 15.73728960  4497
STARLINK-36692          
1 67744U 26026Z   26062.75002315 -.02008821  00000+0 -17110-1 0  9996
2 67744  97.2844 117.1774 0001873  85.4403 100.9593 15.72487316  4358
